{"type": "FeatureCollection", "features": [ {"type": "Feature", "properties": {"norad_id": 40118, "name": "GAOFEN-2", "group": "resource", "lat": -52.378478183014984, "lon": -130.39420275099062, "alt_km": 640.020773730259, "timestamp": "2025-12-26T23:26:41.810694+00:00", "meta": {"OBJECT_NAME": "GAOFEN-2", "OBJECT_ID": "2014-049A", "EPOCH": "2025-12-26T17:31:49.464768", "MEAN_MOTION": 14.8063248, "ECCENTRICITY": 0.0008714, "INCLINATION": 98.0361, "RA_OF_ASC_NODE": 59.9217, "ARG_OF_PERICENTER": 74.3907, "MEAN_ANOMALY": 285.8266, "EPHEMERIS_TYPE": 0, "CLASSIFICATION_TYPE": "U", "NORAD_CAT_ID": 40118, "ELEMENT_SET_NO": 999, "REV_AT_EPOCH": 61371, "BSTAR": 0.00015095, "MEAN_MOTION_DOT": 1.106e-05, "MEAN_MOTION_DDOT": 0}, "tle": {"line1": "1 40118U 14049A   25360.73043362  .00001106  00000+0  15095-3 0  9996", "line2": "2 40118  98.0361  59.9217 0008714  74.3907 285.8266 14.80632480613717"}}, "geometry": {"type": "Point", "coordinates": [-130.39420275099062, -52.378478183014984]}}, {"type": "Feature", "properties": {"norad_id": 40143, "name": "YAOGAN-21", "group": "resource", "lat": -61.70778938384999, "lon": -149.86241385344684, "alt_km": 503.65450400328064, "timestamp": "2025-12-26T23:26:41.810711+00:00", "meta": {"OBJECT_NAME": "YAOGAN-21", "OBJECT_ID": "2014-053A", "EPOCH": "2025-12-26T17:39:19.513728", "MEAN_MOTION": 15.23814358, "ECCENTRICITY": 0.0008384, "INCLINATION": 97.1737, "RA_OF_ASC_NODE": 43.4391, "ARG_OF_PERICENTER": 354.7856, "MEAN_ANOMALY": 5.3293, "EPHEMERIS_TYPE": 0, "CLASSIFICATION_TYPE": "U", "NORAD_CAT_ID": 40143, "ELEMENT_SET_NO": 999, "REV_AT_EPOCH": 62867, "BSTAR": 0.00021181, "MEAN_MOTION_DOT": 5.039e-05, "MEAN_MOTION_DDOT": 0}, "tle": {"line1": "1 40143U 14053A   25360.73564252  .00005039  00000+0  21181-3 0  9997", "line2": "2 40143  97.1737  43.4391 0008384 354.7856   5.3293 15.23814358628674"}}, "geometry": {"type": "Point", "coordinates": [-149.86241385344684, -61.70778938384999]}}, {"type": "Feature", "properties": {"norad_id": 40275, "name": "YAOGAN-22", "group": "resource", "lat": -42.75170626291401, "lon": -45.50994391829541, "alt_km": 1203.7380019125167, "timestamp": "2025-12-26T23:26:41.810721+00:00", "meta": {"OBJECT_NAME": "YAOGAN-22", "OBJECT_ID": "2014-063A", "EPOCH": "2025-12-26T15:00:38.332224", "MEAN_MOTION": 13.15523292, "ECCENTRICITY": 0.0006115, "INCLINATION": 100.7431, "RA_OF_ASC_NODE": 144.2414, "ARG_OF_PERICENTER": 215.0188, "MEAN_ANOMALY": 145.0521, "EPHEMERIS_TYPE": 0, "CLASSIFICATION_TYPE": "U", "NORAD_CAT_ID": 40275, "ELEMENT_SET_NO": 999, "REV_AT_EPOCH": 53712, "BSTAR": 5.2736e-05, "MEAN_MOTION_DOT": -2.7e-07, "MEAN_MOTION_DDOT": 0}, "tle": {"line1": "1 40275U 14063A   25360.62544366 -.00000027  00000+0  52736-4 0  9990", "line2": "2 40275 100.7431 144.2414 0006115 215.0188 145.0521 13.15523292537123"}}, "geometry": {"type": "Point", "coordinates": [-45.50994391829541, -42.75170626291401]}}, {"type": "Feature", "properties": {"norad_id": 40298, "name": "ASNARO", "group": "resource", "lat": 77.92382538555816, "lon": 39.38852459699043, "alt_km": 495.3288472131326, "timestamp": "2025-12-26T23:26:41.810743+00:00", "meta": {"OBJECT_NAME": "ASNARO", "OBJECT_ID": "2014-070A", "EPOCH": "2025-12-26T18:21:07.963200", "MEAN_MOTION": 15.19785526, "ECCENTRICITY": 0.0005618, "INCLINATION": 97.3631, "RA_OF_ASC_NODE": 76.3683, "ARG_OF_PERICENTER": 83.8787, "MEAN_ANOMALY": 276.3088, "EPHEMERIS_TYPE": 0, "CLASSIFICATION_TYPE": "U", "NORAD_CAT_ID": 40298, "ELEMENT_SET_NO": 999, "REV_AT_EPOCH": 61782, "BSTAR": 0.00060872, "MEAN_MOTION_DOT": 0.0001298, "MEAN_MOTION_DDOT": 0}, "tle": {"line1": "1 40298U 14070A   25360.76467550  .00012980  00000+0  60872-3 0  9996", "line2": "2 40298  97.3631  76.3683 0005618  83.8787 276.3088 15.19785526617825"}}, "geometry": {"type": "Point", "coordinates": [39.38852459699043, 77.92382538555816]}}, {"type": "Feature", "properties": {"norad_id": 40310, "name": "YAOGAN-24", "group": "resource", "lat": -10.065128382973981, "lon": 133.59990682541186, "alt_km": 648.3809121958875, "timestamp": "2025-12-26T23:26:41.810753+00:00", "meta": {"OBJECT_NAME": "YAOGAN-24", "OBJECT_ID": "2014-072A", "EPOCH": "2025-12-26T18:36:38.181024", "MEAN_MOTION": 14.76205498, "ECCENTRICITY": 0.0015204, "INCLINATION": 98.1232, "RA_OF_ASC_NODE": 131.9447, "ARG_OF_PERICENTER": 96.0755, "MEAN_ANOMALY": 264.2187, "EPHEMERIS_TYPE": 0, "CLASSIFICATION_TYPE": "U", "NORAD_CAT_ID": 40310, "ELEMENT_SET_NO": 999, "REV_AT_EPOCH": 59828, "BSTAR": 0.00015377, "MEAN_MOTION_DOT": 1.013e-05, "MEAN_MOTION_DDOT": 0}, "tle": {"line1": "1 40310U 14072A   25360.77544191  .00001013  00000+0  15377-3 0  9996", "line2": "2 40310  98.1232 131.9447 0015204  96.0755 264.2187 14.76205498598286"}}, "geometry": {"type": "Point", "coordinates": [133.59990682541186, -10.065128382973981]}}, {"type": "Feature", "properties": {"norad_id": 40336, "name": "CBERS 4", "group": "resource", "lat": 10.544923694050427, "lon": -119.93245629659688, "alt_km": 774.4133462064701, "timestamp": "2025-12-26T23:26:41.810762+00:00", "meta": {"OBJECT_NAME": "CBERS 4", "OBJECT_ID": "2014-079A", "EPOCH": "2025-12-26T17:38:27.040416", "MEAN_MOTION": 14.35522948, "ECCENTRICITY": 0.0001883, "INCLINATION": 98.3285, "RA_OF_ASC_NODE": 58.2715, "ARG_OF_PERICENTER": 96.8205, "MEAN_ANOMALY": 263.3196, "EPHEMERIS_TYPE": 0, "CLASSIFICATION_TYPE": "U", "NORAD_CAT_ID": 40336, "ELEMENT_SET_NO": 999, "REV_AT_EPOCH": 57921, "BSTAR": 4.4237e-05, "MEAN_MOTION_DOT": 8.5e-07, "MEAN_MOTION_DDOT": 0}, "tle": {"line1": "1 40336U 14079A   25360.73503519  .00000085  00000+0  44237-4 0  9992", "line2": "2 40336  98.3285  58.2715 0001883  96.8205 263.3196 14.35522948579218"}}, "geometry": {"type": "Point", "coordinates": [-119.93245629659688, 10.544923694050427]}}, {"type": "Feature", "properties": {"norad_id": 40362, "name": "YAOGAN-26", "group": "resource", "lat": 45.25449294956298, "lon": -6.04116746911078, "alt_km": 441.528721470002, "timestamp": "2025-12-26T23:26:41.810772+00:00", "meta": {"OBJECT_NAME": "YAOGAN-26", "OBJECT_ID": "2014-088A", "EPOCH": "2025-12-26T18:34:05.807712", "MEAN_MOTION": 15.39795859, "ECCENTRICITY": 0.0004136, "INCLINATION": 97.065, "RA_OF_ASC_NODE": 0.951, "ARG_OF_PERICENTER": 345.0946, "MEAN_ANOMALY": 15.0178, "EPHEMERIS_TYPE": 0, "CLASSIFICATION_TYPE": "U", "NORAD_CAT_ID": 40362, "ELEMENT_SET_NO": 999, "REV_AT_EPOCH": 61110, "BSTAR": 0.00045697, "MEAN_MOTION_DOT": 0.00018056, "MEAN_MOTION_DDOT": 0}, "tle": {"line1": "1 40362U 14088A   25360.77367833  .00018056  00000+0  45697-3 0  9999", "line2": "2 40362  97.0650   0.9510 0004136 345.0946  15.0178 15.39795859611106"}}, "geometry": {"type": "Point", "coordinates": [-6.04116746911078, 45.25449294956298]}}, {"type": "Feature", "properties": {"norad_id": 40376, "name": "SMAP", "group": "resource", "lat": -3.7113994382433497, "lon": 6.026809440470777, "alt_km": 685.8779457240853, "timestamp": "2025-12-26T23:26:41.810782+00:00", "meta": {"OBJECT_NAME": "SMAP", "OBJECT_ID": "2015-003A", "EPOCH": "2025-12-26T16:53:52.395360", "MEAN_MOTION": 14.63362199, "ECCENTRICITY": 0.0001239, "INCLINATION": 98.1291, "RA_OF_ASC_NODE": 5.2267, "ARG_OF_PERICENTER": 92.3098, "MEAN_ANOMALY": 267.8246, "EPHEMERIS_TYPE": 0, "CLASSIFICATION_TYPE": "U", "NORAD_CAT_ID": 40376, "ELEMENT_SET_NO": 999, "REV_AT_EPOCH": 58239, "BSTAR": 0.00012572, "MEAN_MOTION_DOT": 6.03e-06, "MEAN_MOTION_DDOT": 0}, "tle": {"line1": "1 40376U 15003A   25360.70407865  .00000603  00000+0  12572-3 0  9990", "line2": "2 40376  98.1291   5.2267 0001239  92.3098 267.8246 14.63362199582396"}}, "geometry": {"type": "Point", "coordinates": [6.026809440470777, -3.7113994382433497]}}, {"type": "Feature", "properties": {"norad_id": 40536, "name": "KOMPSAT-3A", "group": "resource", "lat": -44.873495669368204, "lon": 148.39429163320133, "alt_km": 442.12926925857664, "timestamp": "2025-12-26T23:26:41.810791+00:00", "meta": {"OBJECT_NAME": "KOMPSAT-3A", "OBJECT_ID": "2015-014A", "EPOCH": "2025-12-26T17:48:28.967616", "MEAN_MOTION": 15.44467181, "ECCENTRICITY": 0.0005665, "INCLINATION": 97.6807, "RA_OF_ASC_NODE": 335.868, "ARG_OF_PERICENTER": 97.1699, "MEAN_ANOMALY": 263.0193, "EPHEMERIS_TYPE": 0, "CLASSIFICATION_TYPE": "U", "NORAD_CAT_ID": 40536, "ELEMENT_SET_NO": 999, "REV_AT_EPOCH": 59511, "BSTAR": 0.0004632, "MEAN_MOTION_DOT": 0.00021396, "MEAN_MOTION_DDOT": 0}, "tle": {"line1": "1 40536U 15014A   25360.74200194  .00021396  00000+0  46320-3 0  9990", "line2": "2 40536  97.6807 335.8680 0005665  97.1699 263.0193 15.44467181595119"}}, "geometry": {"type": "Point", "coordinates": [148.39429163320133, -44.873495669368204]}}, {"type": "Feature", "properties": {"norad_id": 40697, "name": "SENTINEL-2A", "group": "resource", "lat": -0.5240904476933859, "lon": 73.3890906441976, "alt_km": 791.9800134427815, "timestamp": "2025-12-26T23:26:41.810800+00:00", "meta": {"OBJECT_NAME": "SENTINEL-2A", "OBJECT_ID": "2015-028A", "EPOCH": "2025-12-26T18:24:44.750304", "MEAN_MOTION": 14.30811325, "ECCENTRICITY": 0.0001043, "INCLINATION": 98.5724, "RA_OF_ASC_NODE": 73.1033, "ARG_OF_PERICENTER": 87.0219, "MEAN_ANOMALY": 273.1083, "EPHEMERIS_TYPE": 0, "CLASSIFICATION_TYPE": "U", "NORAD_CAT_ID": 40697, "ELEMENT_SET_NO": 999, "REV_AT_EPOCH": 54907, "BSTAR": 9.8441e-05, "MEAN_MOTION_DOT": 2.14e-06, "MEAN_MOTION_DDOT": 0}, "tle": {"line1": "1 40697U 15028A   25360.76718461  .00000214  00000+0  98441-4 0  9994", "line2": "2 40697  98.5724  73.1033 0001043  87.0219 273.1083 14.30811325549072"}}, "geometry": {"type": "Point", "coordinates": [73.3890906441976, -0.5240904476933859]}}]}